STARLINK-31502          
1 59301U 24056F   26067.81125089 -.00005629  00000+0 -19549-3 0  9994
2 59301  43.0012 228.4246 0001841 269.2505  90.8136 15.27529889111108
FLOCK 4G-5              
1 62663U 25009BG  26068.45638436  .00011278  00000+0  40688-3 0  9997
2 62663  97.4058 151.2478 0002094 314.5072  45.5996 15.28679529 63699
